{
  "type": "FeatureCollection",
  "features": [
    {
      "type": "Feature",
      "properties": {
        "norad_id": 35476,
        "name": "COSMOS 2251 DEB",
        "group": "cosmos-2251-debris",
        "lat": 21.397335327998608,
        "lon": 71.94464942983204,
        "alt_km": 631.7334354263958,
        "timestamp": "2025-12-10T09:57:45.094125+00:00",
        "meta_object_name": "COSMOS 2251 DEB",
        "meta_object_id": "1993-036ALW",
        "meta_epoch": "2025-12-10T00:21:37.143072",
        "meta_mean_motion": 14.75578975,
        "meta_eccentricity": 0.0017495,
        "meta_inclination": 73.9777,
        "meta_ra_of_asc_node": 66.2645,
        "meta_arg_of_pericenter": 49.2838,
        "meta_mean_anomaly": 8.7675,
        "meta_ephemeris_type": 0,
        "meta_classification_type": "U",
        "meta_norad_cat_id": 35476,
        "meta_element_set_no": 999,
        "meta_rev_at_epoch": 87847,
        "meta_bstar": 0.0024242,
        "meta_mean_motion_dot": 0.00016579,
        "meta_mean_motion_ddot": 0,
        "tle_line1": "1 35476U 93036ALW 25344.01501323  .00016579  00000+0  24242-2 0  9992",
        "tle_line2": "2 35476  73.9777  66.2645 0017495  49.2838   8.7675 14.75578975878471"
      },
      "geometry": {
        "type": "Point",
        "coordinates": [
          71.94464942983204,
          21.397335327998608
        ]
      }
    },
    {
      "type": "Feature",
      "properties": {
        "norad_id": 35580,
        "name": "COSMOS 2251 DEB",
        "group": "cosmos-2251-debris",
        "lat": 11.035866517433655,
        "lon": -0.5531035383483203,
        "alt_km": 756.4933280552386,
        "timestamp": "2025-12-10T09:57:45.094135+00:00",
        "meta_object_name": "COSMOS 2251 DEB",
        "meta_object_id": "1993-036ALX",
        "meta_epoch": "2025-12-06T21:51:49.269024",
        "meta_mean_motion": 13.83821036,
        "meta_eccentricity": 0.02818687,
        "meta_inclination": 73.9,
        "meta_ra_of_asc_node": 188.633,
        "meta_arg_of_pericenter": 195.0077,
        "meta_mean_anomaly": 164.256,
        "meta_ephemeris_type": 0,
        "meta_classification_type": "U",
        "meta_norad_cat_id": 35580,
        "meta_element_set_no": 999,
        "meta_rev_at_epoch": 62176,
        "meta_bstar": 0.0026984958,
        "meta_mean_motion_dot": 4.042e-05,
        "meta_mean_motion_ddot": 0,
        "tle_line1": "1 35580U 93036ALX 25340.91098691  .00004042  00000+0  26985-2 0  9990",
        "tle_line2": "2 35580  73.9000 188.6330 0281868 195.0077 164.2560 13.83821036621764"
      },
      "geometry": {
        "type": "Point",
        "coordinates": [
          -0.5531035383483203,
          11.035866517433655
        ]
      }
    },
    {
      "type": "Feature",
      "properties": {
        "norad_id": 35583,
        "name": "COSMOS 2251 DEB",
        "group": "cosmos-2251-debris",
        "lat": 70.57225543253146,
        "lon": -19.094092600744165,
        "alt_km": 1258.8268471795645,
        "timestamp": "2025-12-10T09:57:45.094145+00:00",
        "meta_object_name": "COSMOS 2251 DEB",
        "meta_object_id": "1993-036AMA",
        "meta_epoch": "2025-12-09T01:32:45.405888",
        "meta_mean_motion": 13.55325577,
        "meta_eccentricity": 0.03856444,
        "meta_inclination": 73.9171,
        "meta_ra_of_asc_node": 217.9725,
        "meta_arg_of_pericenter": 242.9971,
        "meta_mean_anomaly": 113.128,
        "meta_ephemeris_type": 0,
        "meta_classification_type": "U",
        "meta_norad_cat_id": 35583,
        "meta_element_set_no": 999,
        "meta_rev_at_epoch": 82362,
        "meta_bstar": 0.00076651007,
        "meta_mean_motion_dot": 8.31e-06,
        "meta_mean_motion_ddot": 0,
        "tle_line1": "1 35583U 93036AMA 25343.06441442  .00000831  00000+0  76651-3 0  9996",
        "tle_line2": "2 35583  73.9171 217.9725 0385644 242.9971 113.1280 13.55325577823621"
      },
      "geometry": {
        "type": "Point",
        "coordinates": [
          -19.094092600744165,
          70.57225543253146
        ]
      }
    },
    {
      "type": "Feature",
      "properties": {
        "norad_id": 35585,
        "name": "COSMOS 2251 DEB",
        "group": "cosmos-2251-debris",
        "lat": -65.57784660673441,
        "lon": -148.43461639118664,
        "alt_km": 765.25826122328,
        "timestamp": "2025-12-10T09:57:45.094155+00:00",
        "meta_object_name": "COSMOS 2251 DEB",
        "meta_object_id": "1993-036AMC",
        "meta_epoch": "2025-12-09T10:22:29.182080",
        "meta_mean_motion": 13.75233848,
        "meta_eccentricity": 0.03105431,
        "meta_inclination": 73.9724,
        "meta_ra_of_asc_node": 353.9327,
        "meta_arg_of_pericenter": 266.8304,
        "meta_mean_anomaly": 161.3177,
        "meta_ephemeris_type": 0,
        "meta_classification_type": "U",
        "meta_norad_cat_id": 35585,
        "meta_element_set_no": 999,
        "meta_rev_at_epoch": 64018,
        "meta_bstar": 0.0019149751,
        "meta_mean_motion_dot": 2.583e-05,
        "meta_mean_motion_ddot": 0,
        "tle_line1": "1 35585U 93036AMC 25343.43228220  .00002583  00000+0  19150-2 0  9992",
        "tle_line2": "2 35585  73.9724 353.9327 0310543 266.8304 161.3177 13.75233848640186"
      },
      "geometry": {
        "type": "Point",
        "coordinates": [
          -148.43461639118664,
          -65.57784660673441
        ]
      }
    },
    {
      "type": "Feature",
      "properties": {
        "norad_id": 35586,
        "name": "COSMOS 2251 DEB",
        "group": "cosmos-2251-debris",
        "lat": -71.71993912738631,
        "lon": -113.96044222943958,
        "alt_km": 1096.0181207959631,
        "timestamp": "2025-12-10T09:57:45.094165+00:00",
        "meta_object_name": "COSMOS 2251 DEB",
        "meta_object_id": "1993-036AMD",
        "meta_epoch": "2025-12-09T15:43:44.050080",
        "meta_mean_motion": 13.52082947,
        "meta_eccentricity": 0.0404687,
        "meta_inclination": 74.02,
        "meta_ra_of_asc_node": 307.4172,
        "meta_arg_of_pericenter": 183.4058,
        "meta_mean_anomaly": 354.3417,
        "meta_ephemeris_type": 0,
        "meta_classification_type": "U",
        "meta_norad_cat_id": 35586,
        "meta_element_set_no": 999,
        "meta_rev_at_epoch": 60340,
        "meta_bstar": 0.00055296,
        "meta_mean_motion_dot": 5.88e-06,
        "meta_mean_motion_ddot": 0,
        "tle_line1": "1 35586U 93036AMD 25343.65537095  .00000588  00000+0  55296-3 0  9995",
        "tle_line2": "2 35586  74.0200 307.4172 0404687 183.4058 354.3417 13.52082947603405"
      },
      "geometry": {
        "type": "Point",
        "coordinates": [
          -113.96044222943958,
          -71.71993912738631
        ]
      }
    },
    {
      "type": "Feature",
      "properties": {
        "norad_id": 35587,
        "name": "COSMOS 2251 DEB",
        "group": "cosmos-2251-debris",
        "lat": -41.63618251403411,
        "lon": -102.2730112196501,
        "alt_km": 598.2564888313154,
        "timestamp": "2025-12-10T09:57:45.094176+00:00",
        "meta_object_name": "COSMOS 2251 DEB",
        "meta_object_id": "1993-036AME",
        "meta_epoch": "2025-12-09T21:31:13.107072",
        "meta_mean_motion": 14.71502807,
        "meta_eccentricity": 0.0102685,
        "meta_inclination": 74.0052,
        "meta_ra_of_asc_node": 63.9631,
        "meta_arg_of_pericenter": 252.2421,
        "meta_mean_anomaly": 106.7524,
        "meta_ephemeris_type": 0,
        "meta_classification_type": "U",
        "meta_norad_cat_id": 35587,
        "meta_element_set_no": 999,
        "meta_rev_at_epoch": 66304,
        "meta_bstar": 0.00042333,
        "meta_mean_motion_dot": 2.817e-05,
        "meta_mean_motion_ddot": 0,
        "tle_line1": "1 35587U 93036AME 25343.89667948  .00002817  00000+0  42333-3 0  9998",
        "tle_line2": "2 35587  74.0052  63.9631 0102685 252.2421 106.7524 14.71502807663045"
      },
      "geometry": {
        "type": "Point",
        "coordinates": [
          -102.2730112196501,
          -41.63618251403411
        ]
      }
    },
    {
      "type": "Feature",
      "properties": {
        "norad_id": 35593,
        "name": "COSMOS 2251 DEB",
        "group": "cosmos-2251-debris",
        "lat": 20.16278005030523,
        "lon": -61.351910940864556,
        "alt_km": 794.2885987436266,
        "timestamp": "2025-12-10T09:57:45.094186+00:00",
        "meta_object_name": "COSMOS 2251 DEB",
        "meta_object_id": "1993-036AML",
        "meta_epoch": "2025-12-09T13:39:16.918848",
        "meta_mean_motion": 14.25575866,
        "meta_eccentricity": 0.0105392,
        "meta_inclination": 74.0855,
        "meta_ra_of_asc_node": 294.1568,
        "meta_arg_of_pericenter": 301.2873,
        "meta_mean_anomaly": 57.7986,
        "meta_ephemeris_type": 0,
        "meta_classification_type": "U",
        "meta_norad_cat_id": 35593,
        "meta_element_set_no": 999,
        "meta_rev_at_epoch": 85020,
        "meta_bstar": 0.0020176,
        "meta_mean_motion_dot": 5.039e-05,
        "meta_mean_motion_ddot": 0,
        "tle_line1": "1 35593U 93036AML 25343.56894582  .00005039  00000+0  20176-2 0  9994",
        "tle_line2": "2 35593  74.0855 294.1568 0105392 301.2873  57.7986 14.25575866850201"
      },
      "geometry": {
        "type": "Point",
        "coordinates": [
          -61.351910940864556,
          20.16278005030523
        ]
      }
    }
  ]
}